OBJECT_NAME,OBJECT_ID,EPOCH,MEAN_MOTION,ECCENTRICITY,INCLINATION,RA_OF_ASC_NODE,ARG_OF_PERICENTER,MEAN_ANOMALY,EPHEMERIS_TYPE,CLASSIFICATION_TYPE,NORAD_CAT_ID,ELEMENT_SET_NO,REV_AT_EPOCH,BSTAR,MEAN_MOTION_DOT,MEAN_MOTION_DDOT
KUZGTU 1 (RS47S),2023-091AV,2026-07-15T19:22:30.972288,15.30478450,.0010022,97.5050,261.5889,4.1355,355.9966,0,U,57217,999,16875,.22718E-3,.6626E-4,0
SONATE-2,2024-043Q,2026-07-15T08:46:39.172224,15.60836661,.00068387,97.5555,348.5406,105.9094,254.2917,0,U,59112,999,13228,.31265612E-3,.26026E-3,0
MESAT1,2024-125G,2026-07-15T19:38:23.953056,15.66493732,.0010921,97.2241,55.0170,110.3641,249.8794,0,U,60209,999,11404,.45864E-3,.47941E-3,0
OOV-CUBE (TUBSAT-30),2024-128F,2026-07-15T19:11:01.552128,15.02875215,.0041038,61.9938,125.7955,140.1707,220.2409,0,U,60240,999,11041,.85526E-4,.956E-5,0
COLIBRI-S (RS67S),2024-199M,2026-07-15T21:16:13.568160,15.48868718,.0009084,97.2945,71.0198,159.6903,200.4711,0,U,61746,999,14185,.25557E-3,.13699E-3,0
HORS 3 (RS81S),2024-199U,2026-07-15T20:04:24.745728,15.56939030,.0007225,97.2929,73.2831,154.0401,206.1218,0,U,61753,999,14201,.34502E-3,.24804E-3,0
HORS 4 (RS82S),2024-199V,2026-07-15T16:53:20.411808,15.62422017,.0007086,97.2871,74.5487,146.8205,213.3499,0,U,61754,999,14209,.42435E-3,.37651E-3,0
SIT-2086,2024-199AF,2026-07-15T20:23:13.992000,15.55050279,.0008301,97.2884,73.6735,142.5476,217.6358,0,U,61764,999,13888,.34683E-3,.23261E-3,0
HYPERVIEW 1G (RS66S),2024-199AP,2026-07-15T17:54:21.229056,15.85508641,.0008358,97.2788,78.0960,147.1535,213.0256,0,U,61772,999,13918,.7037E-3,.171393E-2,0
ALTAIR (RS65S),2024-199AW,2026-07-15T21:11:10.561632,15.37515838,.0012109,97.2988,66.0491,193.9297,166.1616,0,U,61779,999,14152,.181E-3,.6593E-4,0
ASRTU-1 (AO-123),2024-199AY,2026-07-15T19:57:44.535744,15.36059284,.001309,97.2960,65.2464,198.2255,161.8522,0,U,61781,999,13832,.12498E-3,.4319E-4,0
SAMSAT-IONOSPHERE (RS75S),2024-199BB,2026-07-15T16:31:01.718976,15.60154549,.000928,97.2893,73.2930,158.4744,201.6905,0,U,61784,999,14200,.43075E-3,.3505E-3,0
RTU MIREA 1 (RS51S),2024-199BC,2026-07-15T20:02:45.333024,15.64333059,.0009361,97.2880,74.4374,153.2009,206.9736,0,U,61785,999,13894,.48432E-3,.46415E-3,0
TEVEL2-4,2025-052D,2026-07-15T03:30:38.474496,15.35565165,.00035404,97.3870,92.5984,51.9364,308.2199,0,U,63213,999,7440,.31214817E-3,.10715E-3,0
TEVEL2-5,2025-052E,2026-07-15T04:04:51.940704,15.35379345,.00035943,97.3866,92.5619,53.2255,306.9318,0,U,63214,999,7440,.30277793E-3,.10329E-3,0
TEVEL2-6,2025-052F,2026-07-15T12:12:47.954304,15.35351129,.00036215,97.3871,92.8865,54.7007,305.4575,0,U,63215,999,7445,.343915E-3,.11734E-3,0
TEVEL2-1,2025-052H,2026-07-14T15:14:51.352512,15.34761887,.0004319,97.3847,91.6018,61.6960,298.4718,0,U,63217,999,7430,.2955724E-3,.9885E-4,0
TEVEL2-3,2025-052J,2026-07-15T05:10:33.241728,15.34836829,.00039996,97.3848,92.2082,62.2511,297.9137,0,U,63218,999,7439,.30743443E-3,.10309E-3,0
TEVEL2-2,2025-052K,2026-07-15T03:46:07.684032,15.34784029,.00043245,97.3840,92.1268,60.5637,299.6037,0,U,63219,999,7438,.30238262E-3,.10122E-3,0
OTP-2,2025-052AB,2026-07-15T04:40:21.861408,15.24337017,.00082123,97.3835,88.2085,71.0688,289.1439,0,U,63235,999,7413,.15351734E-3,.3687E-4,0
TEVEL2-9,2025-052AD,2026-07-15T05:40:36.862464,15.32733619,.00076701,97.3907,91.5192,57.1732,303.0248,0,U,63237,999,7432,.29626782E-3,.9297E-4,0
TEVEL2-7,2025-052AE,2026-07-15T03:39:30.098880,15.32415280,.0007756,97.3906,91.3390,56.8395,303.3590,0,U,63238,999,7430,.29112625E-3,.9043E-4,0
TEVEL2-8,2025-052AF,2026-07-15T03:51:46.384992,15.32400496,.00077974,97.3906,91.3237,57.8563,302.3435,0,U,63239,999,7430,.28216258E-3,.8758E-4,0
INNOSAT 16 (RS92S7),2025-155C,2026-07-15T19:06:14.026752,15.25742631,.0012476,97.4584,163.8414,86.6391,273.6275,0,U,64878,999,8503,.1246E-3,.3111E-4,0
GEOSCAN 6 (RS92S6),2025-155D,2026-07-15T18:06:11.458656,15.30661712,.0009951,97.4575,165.4303,80.5339,279.7026,0,U,64879,999,8513,.20476E-3,.5999E-4,0
GEOSCAN 1 (RS92S1),2025-155E,2026-07-15T21:01:09.685056,15.31311498,.00099,97.4571,165.7264,80.4263,279.8096,0,U,64880,999,8516,.21299E-3,.6371E-4,0
239ALFEROV (RS61S),2025-155F,2026-07-15T19:15:59.873184,15.33681402,.0009608,97.4569,166.3143,80.4274,279.8053,0,U,64881,999,8519,.28294E-3,.9148E-4,0
GEOSCAN 2 (RS92S2),2025-155Q,2026-07-15T20:44:58.461792,15.31568902,.0009039,97.4570,165.8788,70.7771,289.4447,0,U,64890,999,8517,.21077E-3,.6353E-4,0
GEOSCAN 5 (RS92S5),2025-155R,2026-07-15T20:25:44.059296,15.33987407,.0008628,97.4562,166.5113,84.7589,275.4638,0,U,64891,999,8521,.26057E-3,.8498E-4,0
GEOSCAN 4 (RS92S4),2025-155S,2026-07-15T18:24:43.547616,15.34154323,.0008532,97.4566,166.4835,85.3798,274.8419,0,U,64892,999,8520,.26692E-3,.8753E-4,0
