KUZGTU 1 (RS47S)        
1 57217U 23091AV  26196.80730292  .00006626  00000+0  22718-3 0  9994
2 57217  97.5050 261.5889 0010022   4.1355 355.9966 15.30478450168759
SONATE-2                
1 59112U 24043Q   26196.36573116  .00026026  00000+0  31266-3 0  9993
2 59112  97.5555 348.5406 0006838 105.9094 254.2917 15.60836661132287
MESAT1                  
1 60209U 24125G   26196.81833279  .00047941  00000+0  45864-3 0  9990
2 60209  97.2241  55.0170 0010921 110.3641 249.8794 15.66493732114040
OOV-CUBE (TUBSAT-30)    
1 60240U 24128F   26196.79932352  .00000956  00000+0  85526-4 0  9992
2 60240  61.9938 125.7955 0041038 140.1707 220.2409 15.02875215110412
COLIBRI-S (RS67S)       
1 61746U 24199M   26196.88626815  .00013699  00000+0  25557-3 0  9991
2 61746  97.2945  71.0198 0009084 159.6903 200.4711 15.48868718141852
HORS 3 (RS81S)          
1 61753U 24199U   26196.83639752  .00024804  00000+0  34502-3 0  9998
2 61753  97.2929  73.2831 0007225 154.0401 206.1218 15.56939030142016
HORS 4 (RS82S)          
1 61754U 24199V   26196.70370847  .00037651  00000+0  42435-3 0  9990
2 61754  97.2871  74.5487 0007086 146.8205 213.3499 15.62422017142098
SIT-2086                
1 61764U 24199AF  26196.84946750  .00023261  00000+0  34683-3 0  9996
2 61764  97.2884  73.6735 0008301 142.5476 217.6358 15.55050279138885
HYPERVIEW 1G (RS66S)    
1 61772U 24199AP  26196.74607904  .00171393  00000+0  70370-3 0  9992
2 61772  97.2788  78.0960 0008358 147.1535 213.0256 15.85508641139180
ALTAIR (RS65S)          
1 61779U 24199AW  26196.88276113  .00006593  00000+0  18100-3 0  9990
2 61779  97.2988  66.0491 0012109 193.9297 166.1616 15.37515838141520
ASRTU-1 (AO-123)        
1 61781U 24199AY  26196.83176546  .00004319  00000+0  12498-3 0  9995
2 61781  97.2960  65.2464 0013090 198.2255 161.8522 15.36059284138325
SAMSAT-IONOSPHERE (RS7*)
1 61784U 24199BB  26196.68821434  .00035050  00000+0  43075-3 0  9995
2 61784  97.2893  73.2930 0009280 158.4744 201.6905 15.60154549142002
RTU MIREA 1 (RS51S)     
1 61785U 24199BC  26196.83524691  .00046415  00000+0  48432-3 0  9997
2 61785  97.2880  74.4374 0009361 153.2009 206.9736 15.64333059138948
TEVEL2-4                
1 63213U 25052D   26196.14627864  .00010715  00000+0  31215-3 0  9999
2 63213  97.3870  92.5984 0003540  51.9364 308.2199 15.35565165 74407
TEVEL2-5                
1 63214U 25052E   26196.17004561  .00010329  00000+0  30278-3 0  9995
2 63214  97.3866  92.5619 0003594  53.2255 306.9318 15.35379345 74402
TEVEL2-6                
1 63215U 25052F   26196.50888836  .00011734  00000+0  34391-3 0  9999
2 63215  97.3871  92.8865 0003621  54.7007 305.4575 15.35351129 74451
TEVEL2-1                
1 63217U 25052H   26195.63531658  .00009885  00000+0  29557-3 0  9993
2 63217  97.3847  91.6018 0004319  61.6960 298.4718 15.34761887 74302
TEVEL2-3                
1 63218U 25052J   26196.21566252  .00010309  00000+0  30743-3 0  9999
2 63218  97.3848  92.2082 0003999  62.2511 297.9137 15.34836829 74391
TEVEL2-2                
1 63219U 25052K   26196.15703338  .00010122  00000+0  30238-3 0  9993
2 63219  97.3840  92.1268 0004324  60.5637 299.6037 15.34784029 74383
OTP-2                   
1 63235U 25052AB  26196.19469747  .00003687  00000+0  15352-3 0  9996
2 63235  97.3835  88.2085 0008212  71.0688 289.1439 15.24337017 74134
TEVEL2-9                
1 63237U 25052AD  26196.23653776  .00009297  00000+0  29627-3 0  9993
2 63237  97.3907  91.5192 0007670  57.1732 303.0248 15.32733619 74326
TEVEL2-7                
1 63238U 25052AE  26196.15243170  .00009043  00000+0  29113-3 0  9997
2 63238  97.3906  91.3390 0007756  56.8395 303.3590 15.32415280 74302
TEVEL2-8                
1 63239U 25052AF  26196.16095353  .00008758  00000+0  28216-3 0  9992
2 63239  97.3906  91.3237 0007797  57.8563 302.3435 15.32400496 74306
INNOSAT 16 (RS92S7)     
1 64878U 25155C   26196.79599568  .00003111  00000+0  12460-3 0  9994
2 64878  97.4584 163.8414 0012476  86.6391 273.6275 15.25742631 85036
GEOSCAN 6 (RS92S6)      
1 64879U 25155D   26196.75429929  .00005999  00000+0  20476-3 0  9996
2 64879  97.4575 165.4303 0009951  80.5339 279.7026 15.30661712 85139
GEOSCAN 1 (RS92S1)      
1 64880U 25155E   26196.87580654  .00006371  00000+0  21299-3 0  9993
2 64880  97.4571 165.7264 0009900  80.4263 279.8096 15.31311498 85160
239ALFEROV (RS61S)      
1 64881U 25155F   26196.80277631  .00009148  00000+0  28294-3 0  9992
2 64881  97.4569 166.3143 0009608  80.4274 279.8053 15.33681402 85191
GEOSCAN 2 (RS92S2)      
1 64890U 25155Q   26196.86456553  .00006353  00000+0  21077-3 0  9997
2 64890  97.4570 165.8788 0009039  70.7771 289.4447 15.31568902 85173
GEOSCAN 5 (RS92S5)      
1 64891U 25155R   26196.85120439  .00008498  00000+0  26057-3 0  9993
2 64891  97.4562 166.5113 0008628  84.7589 275.4638 15.33987407 85219
GEOSCAN 4 (RS92S4)      
1 64892U 25155S   26196.76717069  .00008753  00000+0  26692-3 0  9994
2 64892  97.4566 166.4835 0008532  85.3798 274.8419 15.34154323 85200
